NORAD_CAT_ID,OBJECT_NAME,OBJECT_TYPE,EPOCH,MEAN_MOTION,ECCENTRICITY,INCLINATION,RA_OF_ASC_NODE,ARG_OF_PERICENTER,MEAN_ANOMALY,BSTAR,MEAN_MOTION_DOT,MEAN_MOTION_DDOT,TLE_LINE0,TLE_LINE1,TLE_LINE2,SEMIMAJOR_AXIS,PERIOD,APOGEE,PERIGEE,DECAYED
53850.0,STARLINK-4767,PAYLOAD,2022-11-08 00:00:02,15.7324386,0.0003432,53.216,11.5429,10.4225,98.7291,0.00013394,0.00018255,0.0,0 STARLINK-4767,1 53850U 22114AJ  22312.00002315  .00018255  00000-0  13394-3 0  9996,2 53850  53.2160  11.5429 0003432  10.4225  98.7291 15.73243860  8449,6727.77,91.531,351.944,347.326,0.0
53850.0,STARLINK-4767,PAYLOAD,2022-11-08 10:00:01,15.73297283,0.000367,53.2159,9.4821,8.8456,301.5646,9.027e-05,0.00012119,0.0,0 STARLINK-4767,1 53850U 22114AJ  22312.41668981  .00012119  00000-0  90270-4 0  9990,2 53850  53.2159   9.4821 0003670   8.8456 301.5646 15.73297283  8504,6727.618,91.528,351.952,347.014,0.0
53850.0,STARLINK-4767,PAYLOAD,2022-11-08 14:00:01,15.73183886,0.0003724,53.2161,8.658,2.6213,172.2756,0.00010232,0.00013755,0.0,0 STARLINK-4767,1 53850U 22114AJ  22312.58334491  .00013755  00000-0  10232-3 0  9990,2 53850  53.2161   8.6580 0003724   2.6213 172.2756 15.73183886  8534,6727.941,91.534,352.31199999999984,347.301,0.0
53850.0,STARLINK-4767,PAYLOAD,2022-11-08 22:00:00,15.73165688,0.0003568,53.2156,7.0066,4.813,259.0124,0.0003664,0.00051051,0.0,0 STARLINK-4767,1 53850U 22114AJ  22312.91667824  .00051051  00000-0  36640-3 0  9998,2 53850  53.2156   7.0066 0003568   4.8130 259.0124 15.73165688  1309,6727.993,91.535,352.259,347.457,0.0
53850.0,STARLINK-4767,PAYLOAD,2022-11-09 14:00:01,15.73195336,0.0003817,53.2155,3.7095,8.4042,73.2664,9.9115e-05,0.0001330999999999,0.0,0 STARLINK-4767,1 53850U 22114AJ  22313.58334491  .00013310  00000-0  99115-4 0  9996,2 53850  53.2155   3.7095 0003817   8.4042  73.2664 15.73195336  1300,6727.908,91.533,352.342,347.205,0.0
53850.0,STARLINK-4767,PAYLOAD,2022-11-09 22:00:01,15.73172844,0.0003678,53.2157,2.0577,6.229,164.4424,5.6937e-05,7.367e-05,0.0,0 STARLINK-4767,1 53850U 22114AJ  22313.91668981  .00007367  00000-0  56937-4 0  9997,2 53850  53.2157   2.0577 0003678   6.2290 164.4424 15.73172844  8746,6727.973000000001,91.535,352.31199999999984,347.36300000000006,0.0
53850.0,STARLINK-4767,PAYLOAD,2022-11-10 14:00:01,15.7314899,0.0004059,53.2154,358.7607,10.4716,337.9133,0.0004852,0.000679,0.0,0 STARLINK-4767,1 53850U 22114AJ  22314.58334491  .00067900  00000-0  48520-3 0  9994,2 53850  53.2154 358.7607 0004059  10.4716 337.9133 15.73148990  1306,6728.041,91.536,352.63699999999994,347.175,0.0
53850.0,STARLINK-4767,PAYLOAD,2022-11-10 22:00:00,15.73155695,0.0003751,53.2154,357.1092,9.4528,67.8455,0.00026585,0.00036792,0.0,0 STARLINK-4767,1 53850U 22114AJ  22314.91667824  .00036792  00000-0  26585-3 0  9992,2 53850  53.2154 357.1092 0003751   9.4528  67.8455 15.73155695  8903,6728.021,91.536,352.41,347.36300000000006,0.0
53850.0,STARLINK-4767,PAYLOAD,2022-11-11 14:00:01,15.73234733,0.0004042,53.2152,353.8121,8.6625,246.4531,0.00011103,0.00015015,0.0,0 STARLINK-4767,1 53850U 22114AJ  22315.58334491  .00015015  00000-0  11103-3 0  9992,2 53850  53.2152 353.8121 0004042   8.6625 246.4531 15.73234733  1308,6727.795999999999,91.531,352.381,346.94199999999995,0.0
53850.0,STARLINK-4767,PAYLOAD,2022-11-11 22:00:00,15.73223809,0.0003805,53.2155,352.1602,6.9897,337.1199,-2.8747e-05,-4.663e-05,0.0,0 STARLINK-4767,1 53850U 22114AJ  22315.91667824 -.00004663  00000-0 -28747-4 0  9990,2 53850  53.2155 352.1602 0003805   6.9897 337.1199 15.73223809  1305,6727.8269999999975,91.532,352.25199999999984,347.13199999999995,0.0
53850.0,STARLINK-4767,PAYLOAD,2022-11-12 08:00:01,15.73245528,0.000403,53.2156,350.0994,5.3478,179.9529,-0.00048701,-0.00068587,0.0,0 STARLINK-4767,1 53850U 22114AJ  22316.33334491 -.00068587  00000-0 -48701-3 0  9994,2 53850  53.2156 350.0994 0004030   5.3478 179.9529 15.73245528  9125,6727.765,91.531,352.342,346.9190000000001,0.0
53850.0,STARLINK-4767,PAYLOAD,2022-11-12 14:00:01,15.73170446,0.0004132,53.2153,348.8629,3.5696,158.4578,0.00070238,0.00099031,0.0,0 STARLINK-4767,1 53850U 22114AJ  22316.58334491  .00099031  00000-0  70238-3 0  9997,2 53850  53.2153 348.8629 0004132   3.5696 158.4578 15.73170446  1301,6727.979,91.535,352.624,347.064,0.0
53850.0,STARLINK-4767,PAYLOAD,2022-11-12 22:00:00,15.73214246,0.0003918,53.2154,347.2112,3.0937,247.8811,3.8154e-05,4.738e-05,0.0,0 STARLINK-4767,1 53850U 22114AJ  22316.91667824  .00004738  00000-0  38154-4 0  9995,2 53850  53.2154 347.2112 0003918   3.0937 247.8811 15.73214246  9214,6727.855,91.532,352.356,347.084,0.0
53850.0,STARLINK-4767,PAYLOAD,2022-11-13 14:00:01,15.73125402,0.0004222,53.2151,343.9141,4.2362,64.5946,0.00067454,0.00094852,0.0,0 STARLINK-4767,1 53850U 22114AJ  22317.58334491  .00094852  00000-0  67454-3 0  9990,2 53850  53.2151 343.9141 0004222   4.2362  64.5946 15.73125402  9319,6728.108,91.538,352.81300000000016,347.13199999999995,0.0
53850.0,STARLINK-4767,PAYLOAD,2022-11-13 22:00:00,15.7317673,0.0003991,53.2155,342.2625,3.3458,154.375,0.00010798,0.00014547,0.0,0 STARLINK-4767,1 53850U 22114AJ  22317.91667824  .00014547  00000-0  10798-3 0  9998,2 53850  53.2155 342.2625 0003991   3.3458 154.3750 15.73176730  1302,6727.962,91.535,352.51199999999994,347.141,0.0
53850.0,STARLINK-4767,PAYLOAD,2022-11-14 14:00:01,15.73230397,0.0004352,53.2157,338.9651,3.9545,331.6018,0.00043782,0.0006138,0.0,0 STARLINK-4767,1 53850U 22114AJ  22318.58334491  .00061380  00000-0  43782-3 0  9999,2 53850  53.2157 338.9651 0004352   3.9545 331.6018 15.73230397  9473,6727.809,91.531,352.601,346.746,0.0
53850.0,STARLINK-4767,PAYLOAD,2022-11-14 22:00:00,15.73351456,0.0004048,53.2164,337.3127,2.5055,62.037,-0.0028646,-0.00387515,0.0,0 STARLINK-4767,1 53850U 22114AJ  22318.91667824 -.00387515  00000-0 -28646-2 0  9999,2 53850  53.2164 337.3127 0004048   2.5055  62.0370 15.73351456  1305,6727.4630000000025,91.524,352.052,346.605,0.0
53850.0,STARLINK-4767,PAYLOAD,2022-11-15 02:00:01,15.73213163,0.0004066,53.2156,336.4893,7.0991,281.8987,-0.00010875,-0.00015874,0.0,0 STARLINK-4767,1 53850U 22114AJ  22319.08334491 -.00015874  00000-0 -10875-3 0  9991,2 53850  53.2156 336.4893 0004066   7.0991 281.8987 15.73213163  9557,6727.858,91.532,352.458,346.987,0.0
53850.0,STARLINK-4767,PAYLOAD,2022-11-15 14:00:01,15.73235504,0.0004349,53.2151,334.0168,6.5722,235.8053,-0.00038894,-0.00054971,0.0,0 STARLINK-4767,1 53850U 22114AJ  22319.58334491 -.00054971  00000-0 -38894-3 0  9998,2 53850  53.2151 334.0168 0004349   6.5722 235.8053 15.73235504  1302,6727.794,91.531,352.585,346.733,0.0
53850.0,STARLINK-4767,PAYLOAD,2022-11-15 22:00:00,15.73186936,0.0004115,53.2154,332.3652,5.1925,326.1383,3.1659e-05,3.82e-05,0.0,0 STARLINK-4767,1 53850U 22114AJ  22319.91667824  .00003820  00000-0  31659-4 0  9992,2 53850  53.2154 332.3652 0004115   5.1925 326.1383 15.73186936  1309,6727.932,91.534,352.566,347.029,0.0
53850.0,STARLINK-4767,PAYLOAD,2022-11-16 06:00:00,15.7317497,0.0004284,53.2162,330.7173,5.8892,54.3609,0.00015757,0.00021533,0.0,0 STARLINK-4767,1 53850U 22114AJ  22320.25001157  .00021533  00000-0  15757-3 0  9993,2 53850  53.2162 330.7173 0004284   5.8892  54.3609 15.73174970  9736,6727.967,91.535,352.714,346.949,0.0
53850.0,STARLINK-4767,PAYLOAD,2022-11-16 14:00:01,15.73248139,0.000446,53.2163,329.0678,6.7091,142.501,-0.0005794,-0.00081379,0.0,0 STARLINK-4767,1 53850U 22114AJ  22320.58335648 -.00081379  00000-0 -57940-3 0  9990,2 53850  53.2163 329.0678 0004460   6.7091 142.5010 15.73248139  1305,6727.7580000000025,91.53,352.624,346.622,0.0
53850.0,STARLINK-4767,PAYLOAD,2022-11-16 22:00:08,15.73142456,0.0004223,53.2171,327.415,8.921,229.6505,0.00065936,0.00092748,0.0,0 STARLINK-4767,1 53850U 22114AJ  22320.91675926  .00092748  00000-0  65936-3 0  9997,2 53850  53.2171 327.4150 0004223   8.9210 229.6505 15.73142456  1306,6728.059,91.537,352.765,347.083,0.0
53850.0,STARLINK-4767,PAYLOAD,2022-11-17 06:00:00,15.73197333,0.0004274,53.2151,325.7689,3.8348,323.2745,0.0001564,0.00021389,0.0,0 STARLINK-4767,1 53850U 22114AJ  22321.25001157  .00021389  00000-0  15640-3 0  9994,2 53850  53.2151 325.7689 0004274   3.8348 323.2745 15.73197333  9897,6727.903,91.533,352.64300000000014,346.892,0.0
53850.0,STARLINK-4767,PAYLOAD,2022-11-17 14:00:01,15.73017165,0.0004402,53.2163,324.1179,6.7959,49.257,0.0019504,0.00280306,0.0,0 STARLINK-4767,1 53850U 22114AJ  22321.58334491  .00280306  00000-0  19504-2 0  9998,2 53850  53.2163 324.1179 0004402   6.7959  49.2570 15.73017165  9941,6728.416,91.544,353.24300000000005,347.32,0.0
53850.0,STARLINK-4767,PAYLOAD,2022-11-17 22:00:00,15.73210717,0.0004136,53.2149,322.468,3.7932,141.1633,0.00018836,0.00025916,0.0,0 STARLINK-4767,1 53850U 22114AJ  22321.91667824  .00025916  00000-0  18836-3 0  9996,2 53850  53.2149 322.4680 0004136   3.7932 141.1633 15.73210717  1307,6727.865,91.533,352.51199999999994,346.94699999999995,0.0
53850.0,STARLINK-4767,PAYLOAD,2022-11-18 06:00:00,15.7340581,0.000387,53.2163,320.8188,357.9098,235.9728,-0.0045136,-0.00596892,0.0,0 STARLINK-4767,1 53850U 22114AJ  22322.25001157 -.00596892  00000-0 -45136-2 0  9995,2 53850  53.2163 320.8188 0003870 357.9098 235.9728 15.73405810 10058,6727.308000000001,91.521,351.777,346.57,0.0
53850.0,STARLINK-4767,PAYLOAD,2022-11-18 14:00:01,15.73072055,0.0003665,53.2166,319.1686,330.7453,352.0485,-0.0060446,-0.0077161999999999,0.0,0 STARLINK-4767,1 53850U 22114AJ  22322.58334491 -.00771620  00000-0 -60446-2 0  9996,2 53850  53.2166 319.1686 0003665 330.7453 352.0485 15.73072055  1301,6728.26,91.541,352.591,347.659,0.0
53850.0,STARLINK-4767,PAYLOAD,2022-11-18 22:00:00,15.7246889,0.0005117,53.2172,317.5185,290.0557,121.2162,-0.0085954999999999,-0.01054057,0.0,0 STARLINK-4767,1 53850U 22114AJ  22322.91667824 -.01054057  00000-0 -85955-2 0  9993,2 53850  53.2172 317.5185 0005117 290.0557 121.2162 15.72468890  1304,6729.98,91.576,355.289,348.402,0.0
